{
  "norad_id": 52894,
  "name": "PVSAT",
  "history": [
    {
      "epoch": "2026-03-28T21:59:46.840704Z",
      "apogee_km": 700.5197980512921,
      "perigee_km": 689.1261083219033,
      "latitude_deg": -7.793631185658992e-05,
      "longitude_deg": 71.7701478829711,
      "height_km": 698.0812542442395,
      "semi_major_axis_km": 7072.959953186598,
      "eccentricity": 0.00080544,
      "inclination_deg": 98.2146,
      "raan_deg": 228.0454,
      "arg_perigee_deg": 267.3142,
      "mean_anomaly_deg": 92.7135,
      "mean_motion_rev_day": 14.59489461
    },
    {
      "epoch": "2026-03-29T02:55:57.006048Z",
      "apogee_km": 700.5196145508398,
      "perigee_km": 689.1250770447587,
      "latitude_deg": 6.396987467595929e-05,
      "longitude_deg": -2.2713488294929594,
      "height_km": 698.153895704471,
      "semi_major_axis_km": 7072.959345797799,
      "eccentricity": 0.0008055,
      "inclination_deg": 98.2146,
      "raan_deg": 228.249,
      "arg_perigee_deg": 266.5768,
      "mean_anomaly_deg": 93.4511,
      "mean_motion_rev_day": 14.59489649
    },
    {
      "epoch": "2026-03-29T21:01:54.244992Z",
      "apogee_km": 700.5229982068668,
      "perigee_km": 689.1143207281466,
      "latitude_deg": -8.790278920531022e-05,
      "longitude_deg": 86.24346867203793,
      "height_km": 698.4189323748153,
      "semi_major_axis_km": 7072.955659467507,
      "eccentricity": 0.0008065,
      "inclination_deg": 98.2147,
      "raan_deg": 228.9956,
      "arg_perigee_deg": 263.8728,
      "mean_anomaly_deg": 96.1552,
      "mean_motion_rev_day": 14.5949079
    }
  ]
}